start=new Date('2023-02-11T00:00:00.000Z').valueOf();
sats=[{"MEAN_ELEMENT_THEORY":"SGP4","TLE_LINE1":"1 51885U 22022AK  23041.19842857  .00026501  00000-0  16755-2 0  9999","MEAN_MOTION_DOT":"0.00026501","ECCENTRICITY":"0.00016530","ARG_OF_PERICENTER":"84.1331","RA_OF_ASC_NODE":"2.6731","NORAD_CAT_ID":"51885","TIME_SYSTEM":"UTC","FILE":"3785071","REF_FRAME":"TEME","MEAN_MOTION_DDOT":"0.0000000000000","ELEMENT_SET_NO":"999","TLE_LINE2":"2 51885  53.2162   2.6731 0001653  84.1331 275.9850 15.08871638 53632","DECAY_DATE":null,"EPOCH":"2023-02-10T04:45:44.228448","MEAN_MOTION":"15.08871638","OBJECT_ID":"2022-022AK","EPHEMERIS_TYPE":"0","PERIAPSIS":"538.505","APOAPSIS":"540.792","LAUNCH_DATE":"2022-03-03","CLASSIFICATION_TYPE":"U","OBJECT_NAME":"STARLINK-3584","SEMIMAJOR_AXIS":"6917.784","BSTAR":"0.00167550000000","GP_ID":"225072552","OBJECT_TYPE":"PAYLOAD","INCLINATION":"53.2162","SITE":"AFETR","PERIOD":"95.436","RCS_SIZE":"LARGE","MEAN_ANOMALY":"275.9850","CENTER_NAME":"EARTH","COUNTRY_CODE":"US","REV_AT_EPOCH":"5363"},{"PERIAPSIS":"538.961","APOAPSIS":"540.379","LAUNCH_DATE":"2022-03-03","OBJECT_NAME":"STARLINK-3565","CLASSIFICATION_TYPE":"U","SEMIMAJOR_AXIS":"6917.805","BSTAR":"0.00338820000000","DECAY_DATE":null,"EPOCH":"2023-02-10T06:31:43.922496","MEAN_MOTION":"15.08864780","EPHEMERIS_TYPE":"0","OBJECT_ID":"2022-022AL","REV_AT_EPOCH":"5365","COUNTRY_CODE":"US","CENTER_NAME":"EARTH","OBJECT_TYPE":"PAYLOAD","GP_ID":"225070805","INCLINATION":"53.2160","SITE":"AFETR","PERIOD":"95.436","RCS_SIZE":"LARGE","MEAN_ANOMALY":"261.5877","ECCENTRICITY":"0.00010250","TLE_LINE1":"1 51886U 22022AL  23041.27203614  .00054086  00000-0  33882-2 0  9990","MEAN_ELEMENT_THEORY":"SGP4","MEAN_MOTION_DOT":"0.00054086","MEAN_MOTION_DDOT":"0.0000000000000","ELEMENT_SET_NO":"999","TLE_LINE2":"2 51886  53.2160   2.3438 0001025  98.5231 261.5877 15.08864780 53655","RA_OF_ASC_NODE":"2.3438","ARG_OF_PERICENTER":"98.5231","REF_FRAME":"TEME","FILE":"3785071","NORAD_CAT_ID":"51886","TIME_SYSTEM":"UTC"},{"APOAPSIS":"540.290","LAUNCH_DATE":"2022-03-03","PERIAPSIS":"539.076","BSTAR":"0.00055312000000","SEMIMAJOR_AXIS":"6917.818","OBJECT_NAME":"STARLINK-3551","CLASSIFICATION_TYPE":"U","MEAN_MOTION":"15.08860426","EPOCH":"2023-02-10T04:40:25.745952","DECAY_DATE":null,"OBJECT_ID":"2022-022AM","EPHEMERIS_TYPE":"0","CENTER_NAME":"EARTH","COUNTRY_CODE":"US","REV_AT_EPOCH":"5363","GP_ID":"225071555","OBJECT_TYPE":"PAYLOAD","PERIOD":"95.436","RCS_SIZE":"LARGE","MEAN_ANOMALY":"274.8405","SITE":"AFETR","INCLINATION":"53.2171","ECCENTRICITY":"0.00008780","MEAN_ELEMENT_THEORY":"SGP4","TLE_LINE1":"1 51887U 22022AM  23041.19474243  .00008531  00000-0  55312-3 0  9997","MEAN_MOTION_DOT":"0.00008531","TLE_LINE2":"2 51887  53.2171   2.6908 0000878  85.2687 274.8405 15.08860426 53631","ELEMENT_SET_NO":"999","MEAN_MOTION_DDOT":"0.0000000000000","ARG_OF_PERICENTER":"85.2687","RA_OF_ASC_NODE":"2.6908","NORAD_CAT_ID":"51887","TIME_SYSTEM":"UTC","FILE":"3785071","REF_FRAME":"TEME"},{"BSTAR":"0.00269700000000","SEMIMAJOR_AXIS":"6917.741","OBJECT_NAME":"STARLINK-3536","CLASSIFICATION_TYPE":"U","LAUNCH_DATE":"2022-03-03","APOAPSIS":"540.802","PERIAPSIS":"538.411","EPHEMERIS_TYPE":"0","OBJECT_ID":"2022-022AN","MEAN_MOTION":"15.08885504","EPOCH":"2023-02-10T09:37:11.327520","DECAY_DATE":null,"REV_AT_EPOCH":"5367","COUNTRY_CODE":"US","CENTER_NAME":"EARTH","MEAN_ANOMALY":"287.4940","RCS_SIZE":"LARGE","PERIOD":"95.435","INCLINATION":"53.2180","SITE":"AFETR","OBJECT_TYPE":"PAYLOAD","GP_ID":"225071807","ECCENTRICITY":"0.00017280","MEAN_MOTION_DOT":"0.00042950","TLE_LINE1":"1 51888U 22022AN  23041.40082555  .00042950  00000-0  26970-2 0  9993","MEAN_ELEMENT_THEORY":"SGP4","TLE_LINE2":"2 51888  53.2180   1.7613 0001728  72.6241 287.4940 15.08885504 53678","ELEMENT_SET_NO":"999","MEAN_MOTION_DDOT":"0.0000000000000","FILE":"3785071","REF_FRAME":"TEME","NORAD_CAT_ID":"51888","TIME_SYSTEM":"UTC","RA_OF_ASC_NODE":"1.7613","ARG_OF_PERICENTER":"72.6241"},{"FILE":"3785071","REF_FRAME":"TEME","NORAD_CAT_ID":"51889","TIME_SYSTEM":"UTC","RA_OF_ASC_NODE":"2.4441","ARG_OF_PERICENTER":"85.8376","MEAN_MOTION_DDOT":"0.0000000000000","ELEMENT_SET_NO":"999","TLE_LINE2":"2 51889  53.2167   2.4441 0000901  85.8376 274.2719 15.08876279 53642","MEAN_MOTION_DOT":"0.00037435","TLE_LINE1":"1 51889U 22022AP  23041.24995197  .00037435  00000-0  23554-2 0  9998","MEAN_ELEMENT_THEORY":"SGP4","ECCENTRICITY":"0.00009010","SITE":"AFETR","INCLINATION":"53.2167","MEAN_ANOMALY":"274.2719","RCS_SIZE":"LARGE","PERIOD":"95.435","OBJECT_TYPE":"PAYLOAD","GP_ID":"225072053","REV_AT_EPOCH":"5364","COUNTRY_CODE":"US","CENTER_NAME":"EARTH","EPHEMERIS_TYPE":"0","OBJECT_ID":"2022-022AP","DECAY_DATE":null,"EPOCH":"2023-02-10T05:59:55.850208","MEAN_MOTION":"15.08876279","OBJECT_NAME":"STARLINK-3547","CLASSIFICATION_TYPE":"U","BSTAR":"0.00235540000000","SEMIMAJOR_AXIS":"6917.770","PERIAPSIS":"539.011","APOAPSIS":"540.258","LAUNCH_DATE":"2022-03-03"},{"MEAN_MOTION_DDOT":"0.0000000000000","ELEMENT_SET_NO":"999","TLE_LINE2":"2 51890  53.2161   2.7091 0000979 100.4076 259.7027 15.08869255 53633","RA_OF_ASC_NODE":"2.7091","ARG_OF_PERICENTER":"100.4076","FILE":"3784474","REF_FRAME":"TEME","NORAD_CAT_ID":"51890","TIME_SYSTEM":"UTC","ECCENTRICITY":"0.00009790","TLE_LINE1":"1 51890U 22022AQ  23041.19107346  .00046476  00000-0  29168-2 0  9997","MEAN_ELEMENT_THEORY":"SGP4","MEAN_MOTION_DOT":"0.00046476","REV_AT_EPOCH":"5363","COUNTRY_CODE":"US","CENTER_NAME":"EARTH","OBJECT_TYPE":"PAYLOAD","GP_ID":"225036954","INCLINATION":"53.2161","SITE":"AFETR","MEAN_ANOMALY":"259.7027","RCS_SIZE":"LARGE","PERIOD":"95.436","PERIAPSIS":"538.979","LAUNCH_DATE":"2022-03-03","APOAPSIS":"540.333","CLASSIFICATION_TYPE":"U","OBJECT_NAME":"STARLINK-3519","BSTAR":"0.00291680000000","SEMIMAJOR_AXIS":"6917.791","DECAY_DATE":null,"EPOCH":"2023-02-10T04:35:08.746944","MEAN_MOTION":"15.08869255","EPHEMERIS_TYPE":"0","OBJECT_ID":"2022-022AQ"},{"MEAN_MOTION_DDOT":"0.0000000000000","ELEMENT_SET_NO":"999","TLE_LINE2":"2 51891  53.2176   2.4599 0000800  85.7607 274.3477 15.08863006 53694","REF_FRAME":"TEME","FILE":"3785071","TIME_SYSTEM":"UTC","NORAD_CAT_ID":"51891","RA_OF_ASC_NODE":"2.4599","ARG_OF_PERICENTER":"85.7607","ECCENTRICITY":"0.00008000","MEAN_MOTION_DOT":"0.00012898","MEAN_ELEMENT_THEORY":"SGP4","TLE_LINE1":"1 51891U 22022AR  23041.24626213  .00012898  00000-0  82648-3 0  9997","COUNTRY_CODE":"US","REV_AT_EPOCH":"5369","CENTER_NAME":"EARTH","SITE":"AFETR","INCLINATION":"53.2176","PERIOD":"95.436","RCS_SIZE":"LARGE","MEAN_ANOMALY":"274.3477","OBJECT_TYPE":"PAYLOAD","GP_ID":"225071056","CLASSIFICATION_TYPE":"U","OBJECT_NAME":"STARLINK-3549","BSTAR":"0.00082648000000","SEMIMAJOR_AXIS":"6917.810","PERIAPSIS":"539.122","APOAPSIS":"540.228","LAUNCH_DATE":"2022-03-03","EPHEMERIS_TYPE":"0","OBJECT_ID":"2022-022AR","DECAY_DATE":null,"MEAN_MOTION":"15.08863006","EPOCH":"2023-02-10T05:54:37.048032"},{"PERIAPSIS":"538.952","APOAPSIS":"540.323","LAUNCH_DATE":"2022-03-03","OBJECT_NAME":"STARLINK-3587","CLASSIFICATION_TYPE":"U","SEMIMAJOR_AXIS":"6917.772","BSTAR":"0.00156410000000","DECAY_DATE":null,"EPOCH":"2023-02-10T04:29:50.531424","MEAN_MOTION":"15.08875426","OBJECT_ID":"2022-022AS","EPHEMERIS_TYPE":"0","CENTER_NAME":"EARTH","REV_AT_EPOCH":"5363","COUNTRY_CODE":"US","GP_ID":"225036964","OBJECT_TYPE":"PAYLOAD","SITE":"AFETR","INCLINATION":"53.2160","MEAN_ANOMALY":"274.0595","RCS_SIZE":"LARGE","PERIOD":"95.435","ECCENTRICITY":"0.00009910","TLE_LINE1":"1 51892U 22022AS  23041.18739041  .00024716  00000-0  15641-2 0  9995","MEAN_ELEMENT_THEORY":"SGP4","MEAN_MOTION_DOT":"0.00024716","ELEMENT_SET_NO":"999","MEAN_MOTION_DDOT":"0.0000000000000","TLE_LINE2":"2 51892  53.2160   2.7273 0000991  86.0510 274.0595 15.08875426 53639","ARG_OF_PERICENTER":"86.0510","RA_OF_ASC_NODE":"2.7273","NORAD_CAT_ID":"51892","TIME_SYSTEM":"UTC","REF_FRAME":"TEME","FILE":"3784474"},{"ECCENTRICITY":"0.00014960","MEAN_MOTION_DOT":"0.00035597","TLE_LINE1":"1 51893U 22022AT  23041.17267045  .00035597  00000-0  22423-2 0  9990","MEAN_ELEMENT_THEORY":"SGP4","ELEMENT_SET_NO":"999","MEAN_MOTION_DDOT":"0.0000000000000","TLE_LINE2":"2 51893  53.2167   2.7930 0001496 118.6188 241.4955 15.08858628 53690","REF_FRAME":"TEME","FILE":"3784474","NORAD_CAT_ID":"51893","TIME_SYSTEM":"UTC","RA_OF_ASC_NODE":"2.7930","ARG_OF_PERICENTER":"118.6188","CLASSIFICATION_TYPE":"U","OBJECT_NAME":"STARLINK-3579","BSTAR":"0.00224230000000","SEMIMAJOR_AXIS":"6917.823","PERIAPSIS":"538.654","APOAPSIS":"540.723","LAUNCH_DATE":"2022-03-03","EPHEMERIS_TYPE":"0","OBJECT_ID":"2022-022AT","DECAY_DATE":null,"EPOCH":"2023-02-10T04:08:38.726880","MEAN_MOTION":"15.08858628","COUNTRY_CODE":"US","REV_AT_EPOCH":"5369","CENTER_NAME":"EARTH","SITE":"AFETR","INCLINATION":"53.2167","RCS_SIZE":"LARGE","MEAN_ANOMALY":"241.4955","PERIOD":"95.436","OBJECT_TYPE":"PAYLOAD","GP_ID":"225036958"},{"CLASSIFICATION_TYPE":"U","OBJECT_NAME":"STARLINK-3595","BSTAR":"0.00207890000000","SEMIMAJOR_AXIS":"6917.810","PERIAPSIS":"538.521","LAUNCH_DATE":"2022-03-03","APOAPSIS":"540.830","EPHEMERIS_TYPE":"0","OBJECT_ID":"2022-022AU","DECAY_DATE":null,"MEAN_MOTION":"15.08862913","EPOCH":"2023-02-10T05:49:19.941888","COUNTRY_CODE":"US","REV_AT_EPOCH":"5370","CENTER_NAME":"EARTH","INCLINATION":"53.2187","SITE":"AFETR","RCS_SIZE":"LARGE","MEAN_ANOMALY":"265.4718","PERIOD":"95.436","OBJECT_TYPE":"PAYLOAD","GP_ID":"225070806","ECCENTRICITY":"0.00016690","MEAN_MOTION_DOT":"0.00032974","MEAN_ELEMENT_THEORY":"SGP4","TLE_LINE1":"1 51894U 22022AU  23041.24259192  .00032974  00000-0  20789-2 0  9992","ELEMENT_SET_NO":"999","MEAN_MOTION_DDOT":"0.0000000000000","TLE_LINE2":"2 51894  53.2187   2.4774 0001669  94.6464 265.4718 15.08862913 53705","REF_FRAME":"TEME","FILE":"3785071","TIME_SYSTEM":"UTC","NORAD_CAT_ID":"51894","RA_OF_ASC_NODE":"2.4774","ARG_OF_PERICENTER":"94.6464"}];
